STARLINK-36707          
1 67706U 26025P   26065.25473742  .00403044  00000+0  25623-2 0  9998
2 67706  97.2848 176.7289 0000772 132.8286 227.3045 15.75325851  5406
STARLINK-36645          
1 67707U 26025Q   26065.27838074  .00157611  00000+0  10373-2 0  9996
2 67707  97.2851 176.6968 0000786  39.3582 320.7740 15.75209940  5409
STARLINK-36287          
1 67708U 26025R   26065.25002315  .00074021  00000+0  49352-3 0  9999
2 67708  97.2850 176.7548 0001667  68.2963 335.1271 15.75157738  5469
STARLINK-36698          
1 67709U 26025S   26065.25002315  .00117964  00000+0  78234-3 0  9995
2 67709  97.2858 176.7741 0001584  68.5499  18.8622 15.75146132  5302
STARLINK-36344          
1 67710U 26025T   26065.25050098  .00404094  00000+0  25669-2 0  9994
2 67710  97.2843 176.7346 0001722 136.4996 223.6406 15.75343733  5414
STARLINK-36687          
1 67711U 26025U   26065.29620284  .00205288  00000+0  10448-2 0  9992
2 67711  97.2852 176.8238 0002164 358.7010   1.4252 15.80870832  5426
STARLINK-36705          
1 67712U 26025V   26065.25861879  .00356927  00000+0  22828-2 0  9998
2 67712  97.2859 176.7196 0000977 100.2586 259.8789 15.75315574  5407
STARLINK-36708          
1 67713U 26025W   26065.29857491 -.00867126  00000+0 -88819-2 0  9990
2 67713  97.2853 176.8230 0001322  83.0346 277.1065 15.67528956  5411
STARLINK-36702          
1 67714U 26025X   26065.25002315  .00281509  00000+0  18367-2 0  9998
2 67714  97.2859 176.7931 0000761  60.5141  72.9085 15.75063183  5096
STARLINK-36718          
1 67715U 26025Y   26065.28117818  .00361034  00000+0  17946-2 0  9991
2 67715  97.2862 176.8433 0001051  95.7163 264.4225 15.80987205  5412
STARLINK-36715          
1 67716U 26025Z   26065.28323909  .00325658  00000+0  16293-2 0  9998
2 67716  97.2865 176.8430 0001274  54.9262 305.2126 15.80935017  5415
STARLINK-36385          
1 67717U 26025AA  26065.28949470  .00206394  00000+0  10506-2 0  9992
2 67717  97.2859 176.8330 0002469 351.3086   8.8139 15.80863149  5419
CZ-2F DEB               
1 67718U 26024E   26064.93993418  .00230629  00000+0  40707-2 0  9998
2 67718  50.3188  37.1031 0236985 265.1895  92.1970 15.23940381  4064
CZ-2F DEB               
1 67719U 26024F   26065.29097114  .00155555  00000+0  37309-2 0  9995
2 67719  49.7930  38.2974 0314426 257.8342  98.7221 15.02592523  3734
CZ-2F DEB               
1 67720U 26024G   26065.27262619  .00143190  00000+0  35369-2 0  9995
2 67720  49.8327  38.9711 0325335 253.8678 102.6229 14.99857101  4041
STARLINK-36772          
1 67721U 26026A   26065.25002315 -.01958123  00000+0 -26735-1 0  9990
2 67721  97.2837 119.7080 0001523  53.4620  26.6636 15.60779861  4764
